[Satellite]
VERSION=1.1
NAME=METOP-B
NICKNAME=METOP-B
TLE1=1 38771U 12049A   15054.82288877  .00000101  00000-0  66408-4 0  9997
TLE2=2 38771  98.7116 116.3307 0001972 137.1124 338.8886 14.21472301126311
